NEXUS (FO-99)           
1 43937U 19003F   21246.35787865  .00002646  00000-0  10443-3 0  9996
2 43937  97.1709 286.4077 0024810  96.0082 264.3985 15.26105243146147
ALE-1                   
1 43938U 19003G   21246.36989517  .00007054  00000-0  24801-3 0  9997
2 43938  97.1842 288.3301 0024037  96.6418 263.7560 15.29379386146200
AOBA VELOX-IV           
1 43940U 19003J   21246.38792518  .00004818  00000-0  17796-3 0  9995
2 43940  97.1723 287.5476 0023952  92.3937 268.0046 15.27925410146209
LINGQUE 1A              
1 43942U 19005A   21246.53610247  .00013283  00000-0  54978-3 0  9993
2 43942  97.5142 347.9673 0013796 214.4636 273.5946 15.23982277144981
JILIN-01-09             
1 43943U 19005B   21246.53678304  .00000846  00000-0  52166-4 0  9991
2 43943  97.5070 340.6844 0013183 228.7203 188.0872 15.12550532144509
XIAOXIANG 3             
1 43944U 19005C   21246.54007124  .00002379  00000-0  13468-3 0  9993
2 43944  97.5070 341.4078 0011285 223.8675 193.1208 15.13963331144548
JILIN-01-10             
1 43946U 19005E   21246.52662037  .00000528  00000-0  33913-4 0  9995
2 43946  97.5064 340.7255 0018370 223.2088 328.6353 15.12543775144435
UNITE                   
1 44031U 98067PX  21246.34509813  .00101055  00000-0  34554-3 0  9996
2 44031  51.6355 219.7500 0002876  62.9748 297.1550 15.88931198148018
HELLAS-SAT 4 & SGS-1    
1 44034U 19007A   21246.26299322  .00000148  00000-0  00000-0 0  9995
2 44034   0.0666 128.3388 0006120  25.9998 321.9780  1.00268742  9839
GSAT-31                 
1 44035U 19007B   21246.37618637  .00000121  00000-0  00000-0 0  9993
2 44035   0.0716 277.2556 0002814 299.6522 309.1103  1.00272857  9453
2018-092C               
1 44041U 18092C   21246.55026965  .00003964  00000-0  10742-3 0  9995
2 44041  51.6411  37.6671 0003718 139.3380 337.3734 15.40067512144379
2018-092D               
1 44042U 18092D   21246.55283814  .00003843  00000-0  10504-3 0  9996
2 44042  51.6411  38.4113 0003549 140.4217 336.3858 15.39890343157323
CHEFSAT 2               
1 44044U 18092E   21246.36583803  .00012481  00000-0  27776-3 0  9995
2 44044  51.6383  37.4033 0008951 133.5072 226.6660 15.43986470143607
EGYPTSAT-A (MISRSAT-A)  
1 44047U 19008A   21246.52187853  .00000086  00000-0  21367-4 0  9998
2 44047  98.0092 310.3760 0001287  81.4914 278.6443 14.72332345136080
NUSANTARA SATU          
1 44048U 19009A   21246.39383994 -.00000239  00000-0  00000-0 0  9997
2 44048   0.0194 122.8161 0001844  44.5953 103.1276  1.00271575  9236
ONEWEB-0012             
1 44057U 19010A   21246.24848425 -.00036318  00000-0 -85960-1 0  9995
2 44057  87.4052 244.5676 0002779 125.6537 234.4856 13.23650305121369
ONEWEB-0010             
1 44058U 19010B   21246.26530298  .00002142  00000-0  50533-2 0  9999
2 44058  87.3775 244.5139 0001266  77.1941 282.9335 13.23116264121412
ONEWEB-0008             
1 44059U 19010C   21245.63009502 -.00116928  00000-0 -28330+0 0  9996
2 44059  87.4169 244.7013 0005541  92.9895 267.1873 13.22654896121438
ONEWEB-0007             
1 44060U 19010D   21246.28038506  .00000097  00000-0  20032-3 0  9998
2 44060  87.9850 245.8584 0002592 100.1688 259.9739 13.22897623121529
ONEWEB-0006             
1 44061U 19010E   21246.37108234  .00000005  00000-0 -18823-4 0  9991
2 44061  87.9860 245.8701 0002127  92.1127 268.0250 13.22550611121593
ONEWEB-0011             
1 44062U 19010F   21246.23333061  .00000061  00000-0  11633-3 0  9997
2 44062  87.9858 245.9204 0002626  88.4271 271.7164 13.22327990121566
S5                      
1 44065U 19009D   21245.41343169 -.00000258  00000-0  00000-0 0  9999
2 44065   2.0956  90.5583 0004011  42.0162 318.4217  0.99339697  9071
CHINASAT 6C (ZX 6C)     
1 44067U 19012A   21245.57410741 -.00000340  00000-0  00000-0 0  9995
2 44067   0.0647 263.0061 0003171  23.7654  31.8366  1.00271127  9194
WGS 10 (USA 291)        
1 44071U 19014A   21246.36507660  .00000042  00000-0  00000-0 0  9995
2 44071   0.0045 155.9545 0000250 109.1045 269.4072  1.00271644  9103
PRISMA                  
1 44072U 19015A   21246.51763561  .00000107  00000-0  19403-4 0  9991
2 44072  97.8818 320.3742 0001504  84.4996 275.6389 14.83661496132915
TIANLIAN 2-01           
1 44076U 19017A   21246.59609527 -.00000141  00000-0  00000-0 0  9994
2 44076   0.9411 282.4684 0034077 226.2367 128.8301  1.00274484  9081
EMISAT                  
1 44078U 19018A   21246.63646137  .00000006  00000-0  14624-4 0  9990
2 44078  98.4819 303.2677 0019762  94.9974 265.3475 14.43655899127915
FLOCK 4A-2              
1 44080U 19018C   21246.38079568  .00005847  00000-0  23417-3 0  9990
2 44080  97.3555 306.0718 0013326  51.9272 308.3166 15.25350890134854
FLOCK 4A-3              
1 44081U 19018D   21246.15949674  .00002301  00000-0  93893-4 0  9998
2 44081  97.3554 305.8917 0013190  54.2553 305.9910 15.25356270134824
ASTROCAST 0.2           
1 44083U 19018F   21246.11357602  .00002088  00000-0  91911-4 0  9991
2 44083  97.3666 305.7258 0014232  63.8681 296.4018 15.22876229134712
LEMUR-2-JOHANLORAN      
1 44084U 19018G   21246.17163310  .00004920  00000-0  19135-3 0  9993
2 44084  97.3574 306.6476 0013512  55.4892 304.7620 15.26410706134860
LEMUR-2-BEAUDACIOUS     
1 44085U 19018H   21246.18291671  .00004210  00000-0  16758-3 0  9997
2 44085  97.3568 306.3035 0013726  57.4348 302.8214 15.25709898134845
LEMUR-2-ELHAM           
1 44086U 19018J   21246.14166979  .00004519  00000-0  17553-3 0  9992
2 44086  97.3591 306.9262 0013602  56.0008 304.2521 15.26493100134878
LEMUR-2-VICTOR-ANDREW   
1 44087U 19018K   21246.16925028  .00004623  00000-0  17850-3 0  9999
2 44087  97.3594 307.0505 0013465  56.7139 303.5387 15.26683011134888
FLOCK 4A-17             
1 44088U 19018L   21246.15215983  .00004319  00000-0  17368-3 0  9997
2 44088  97.3568 306.1705 0013897  58.4850 301.7743 15.25354529134839
FLOCK 4A-19             
1 44090U 19018N   21246.30814650  .00004695  00000-0  18855-3 0  9992
2 44090  97.3566 306.4048 0013880  58.8314 301.4283 15.25357416134861
FLOCK 4A-6              
1 44094U 19018S   21246.30047484  .00004673  00000-0  18797-3 0  9990
2 44094  97.3573 306.4802 0011646  64.8009 295.4436 15.25329294134862
FLOCK 4A-5              
1 44095U 19018T   21246.15377106  .00001855  00000-0  76977-4 0  9995
2 44095  97.3566 306.3704 0011992  63.5362 296.7104 15.25041813134849
FLOCK 4A-11             
1 44096U 19018U   21246.14442507  .00004466  00000-0  17993-3 0  9996
2 44096  97.3579 306.4084 0011984  67.1202 293.1300 15.25295701134846
FLOCK 4A-9              
1 44098U 19018W   21246.39875513  .00004028  00000-0  16262-3 0  9994
2 44098  97.3575 306.6741 0012346  67.6071 292.6474 15.25279383134886
FLOCK 4A-16             
1 44099U 19018X   21246.12808321  .00002443  00000-0  99532-4 0  9990
2 44099  97.3570 306.3712 0012331  68.6433 291.6120 15.25357997134845
AISTECHSAT-3            
1 44103U 19018AB  21246.60418010  .00001897  00000-0  80308-4 0  9994
2 44103  97.3534 306.6277 0014700  70.6659  66.1468 15.24309387134912
AIS & APRS & ARIS & R/B 
1 44104U 19018AC  21246.31987445  .00001968  00000-0  62373-4 0  9997
2 44104  97.4218 323.7929 0057915  78.6216 282.1524 15.32336226135598
BLUEWALKER 1            
1 44105U 19018AD  21246.28330082  .00002844  00000-0  87029-4 0  9992
2 44105  97.4343 325.5343 0056865  82.7263 278.0439 15.33109236135622
M6P                     
1 44109U 19018AF  21246.15248739  .00003692  00000-0  11105-3 0  9992
2 44109  97.4226 323.6310 0056659  76.6529 284.1022 15.33439264135361
O3B FM20                
1 44112U 19020A   21245.96893910 -.00000022  00000-0  00000-0 0  9998
2 44112   0.0503   3.1810 0002405 150.8334 205.9988  5.00115721 44113
O3B FM19                
1 44113U 19020B   21244.55706866 -.00000024  00000-0  00000-0 0  9998
2 44113   0.0449 320.5694 0001917 213.5478 185.8859  5.00115877 43903
O3B FM17                
1 44114U 19020C   21246.07622915 -.00000022  00000-0  00000-0 0  9998
2 44114   0.0578  22.7913 0002508 137.1916 200.0280  5.00115246 44074
O3B FM18                
1 44115U 19020D   21244.42384147 -.00000024  00000-0  00000-0 0  9990
2 44115   0.0503   2.7170 0002678 158.6305 198.6634  5.00115622 44112
ARABSAT-6A              
1 44186U 19021A   21246.38938038  .00000149  00000-0  00000-0 0  9997
2 44186   0.0196 347.8045 0005401 233.4012 292.1964  1.00274106  8649
BEIDOU-3 IGSO-1         
1 44204U 19023A   21246.03071097 -.00000176  00000-0  00000-0 0  9996
2 44204  56.1387  56.0726 0027693 186.3644 227.3656  1.00379250  8838
TIANHUI 2-01A           
1 44207U 19024A   21246.52057696  .00000138  00000-0  10379-4 0  9994
2 44207  97.4568 250.5463 0001794  89.8088  64.8742 15.16761460129982
TIANHUI 2-01B           
1 44209U 19024A   21243.48562133 -.00001149  00000-0 -55261-4 0  9999
2 44209  97.4559 247.5605 0001845  62.9848  90.3083 15.16751562129525
AFOTEC-1 (FALCON ODE)   
1 44225U 19026A   21246.39725546  .00001605  00000-0  76343-4 0  9990
2 44225  40.0183 284.4722 0005337  74.3185 285.8205 15.22150456129700
SPARC-1                 
1 44226U 19026B   21246.40459671  .00002811  00000-0  11966-3 0  9995
2 44226  40.0166 272.8732 0009630  92.3418 267.8486 15.24389713129908
HARBINGER (ICEYE-X3)    
1 44229U 19026E   21246.40972327  .00001218  00000-0  59699-4 0  9992
2 44229  40.0187 282.7880 0006868  69.7143 290.4396 15.22243927129727
BEIDOU-2 G8             
1 44231U 19027A   21246.24275355 -.00000252  00000-0  00000-0 0  9991
2 44231   0.2777  26.3478 0007058 172.2856  15.8020  1.00267880  8545
RISAT-2B                
1 44233U 19028A   21246.42551052  .00000478  00000-0  46147-4 0  9990
2 44233  36.9995 244.0902 0007475 290.0056  69.9875 14.98163111125518
STARLINK-61             
1 44249U 19029Q   21246.21602954  .00007815  00000-0  34797-3 0  9992
2 44249  52.9855 324.8757 0003109 339.6862  20.4009 15.22377926125574
